{"type": "FeatureCollection", "features": [ {"type": "Feature", "properties": {"norad_id": 38779, "name": "GSAT-10 (GAGAN/PRN 128)", "group": "gnss", "lat": 0.05924172739067524, "lon": 57.73692485283081, "alt_km": 35782.72131775, "timestamp": "2025-12-13T16:48:32.953003+00:00", "meta": {"OBJECT_NAME": "GSAT-10 (GAGAN/PRN 128)", "OBJECT_ID": "2012-051B", "EPOCH": "2025-12-12T22:26:09.799296", "MEAN_MOTION": 1.00273115, "ECCENTRICITY": 0.00024919, "INCLINATION": 0.0889, "RA_OF_ASC_NODE": 266.2077, "ARG_OF_PERICENTER": 225.0383, "MEAN_ANOMALY": 10.1717, "EPHEMERIS_TYPE": 0, "CLASSIFICATION_TYPE": "U", "NORAD_CAT_ID": 38779, "ELEMENT_SET_NO": 999, "REV_AT_EPOCH": 4823, "BSTAR": 0, "MEAN_MOTION_DOT": -1.53e-06, "MEAN_MOTION_DDOT": 0}, "tle": {"line1": "1 38779U 12051B   25346.93483564 -.00000153  00000+0  00000+0 0  9993", "line2": "2 38779   0.0889 266.2077 0002491 225.0383  10.1717  1.00273115 48234"}}, "geometry": {"type": "Point", "coordinates": [57.73692485283081, 0.05924172739067524]}}, {"type": "Feature", "properties": {"norad_id": 38833, "name": "GPS BIIF-3  (PRN 24)", "group": "gnss", "lat": -50.84829621951444, "lon": 36.384646599269324, "alt_km": 20646.378536094482, "timestamp": "2025-12-13T16:48:32.953021+00:00", "meta": {"OBJECT_NAME": "GPS BIIF-3  (PRN 24)", "OBJECT_ID": "2012-053A", "EPOCH": "2025-12-09T20:38:00.572640", "MEAN_MOTION": 2.00564945, "ECCENTRICITY": 0.0175755, "INCLINATION": 53.5569, "RA_OF_ASC_NODE": 151.3565, "ARG_OF_PERICENTER": 63.953, "MEAN_ANOMALY": 297.8432, "EPHEMERIS_TYPE": 0, "CLASSIFICATION_TYPE": "U", "NORAD_CAT_ID": 38833, "ELEMENT_SET_NO": 999, "REV_AT_EPOCH": 9564, "BSTAR": 0, "MEAN_MOTION_DOT": 6.8e-07, "MEAN_MOTION_DDOT": 0}, "tle": {"line1": "1 38833U 12053A   25343.85972885  .00000068  00000+0  00000+0 0  9997", "line2": "2 38833  53.5569 151.3565 0175755  63.9530 297.8432  2.00564945 95646"}}, "geometry": {"type": "Point", "coordinates": [36.384646599269324, -50.84829621951444]}}, {"type": "Feature", "properties": {"norad_id": 38857, "name": "GSAT0103 (GALILEO-FM3)", "group": "gnss", "lat": 52.556255813227004, "lon": -136.3515841343918, "alt_km": 23223.45245093734, "timestamp": "2025-12-13T16:48:32.953033+00:00", "meta": {"OBJECT_NAME": "GSAT0103 (GALILEO-FM3)", "OBJECT_ID": "2012-055A", "EPOCH": "2025-12-10T14:16:18.944544", "MEAN_MOTION": 1.70473311, "ECCENTRICITY": 0.00025926, "INCLINATION": 55.6913, "RA_OF_ASC_NODE": 106.7254, "ARG_OF_PERICENTER": 268.6178, "MEAN_ANOMALY": 91.322, "EPHEMERIS_TYPE": 0, "CLASSIFICATION_TYPE": "U", "NORAD_CAT_ID": 38857, "ELEMENT_SET_NO": 999, "REV_AT_EPOCH": 8179, "BSTAR": 0, "MEAN_MOTION_DOT": 1.1e-07, "MEAN_MOTION_DDOT": 0}, "tle": {"line1": "1 38857U 12055A   25344.59466371  .00000011  00000+0  00000+0 0  9993", "line2": "2 38857  55.6913 106.7254 0002592 268.6178  91.3220  1.70473311 81792"}}, "geometry": {"type": "Point", "coordinates": [-136.3515841343918, 52.556255813227004]}}, {"type": "Feature", "properties": {"norad_id": 38953, "name": "BEIDOU-2 G6 (C02)", "group": "gnss", "lat": -1.1130259204811284, "lon": 58.87164711824806, "alt_km": 35767.285718256404, "timestamp": "2025-12-13T16:48:32.953045+00:00", "meta": {"OBJECT_NAME": "BEIDOU-2 G6 (C02)", "OBJECT_ID": "2012-059A", "EPOCH": "2025-12-12T20:43:44.499936", "MEAN_MOTION": 1.00269643, "ECCENTRICITY": 0.00078194, "INCLINATION": 3.9499, "RA_OF_ASC_NODE": 75.5054, "ARG_OF_PERICENTER": 289.7326, "MEAN_ANOMALY": 111.5098, "EPHEMERIS_TYPE": 0, "CLASSIFICATION_TYPE": "U", "NORAD_CAT_ID": 38953, "ELEMENT_SET_NO": 999, "REV_AT_EPOCH": 4804, "BSTAR": 0, "MEAN_MOTION_DOT": -1.63e-06, "MEAN_MOTION_DDOT": 0}, "tle": {"line1": "1 38953U 12059A   25346.86370949 -.00000163  00000+0  00000+0 0  9990", "line2": "2 38953   3.9499  75.5054 0007819 289.7326 111.5098  1.00269643 48044"}}, "geometry": {"type": "Point", "coordinates": [58.87164711824806, -1.1130259204811284]}}, {"type": "Feature", "properties": {"norad_id": 38977, "name": "LUCH 5B (SDCM/PRN 125)", "group": "gnss", "lat": -10.077766077595651, "lon": -41.54314434833495, "alt_km": 35778.67297045853, "timestamp": "2025-12-13T16:48:32.953056+00:00", "meta": {"OBJECT_NAME": "LUCH 5B (SDCM/PRN 125)", "OBJECT_ID": "2012-061A", "EPOCH": "2025-12-12T23:40:28.445376", "MEAN_MOTION": 1.00272307, "ECCENTRICITY": 0.00070891, "INCLINATION": 10.0822, "RA_OF_ASC_NODE": 51.7049, "ARG_OF_PERICENTER": 193.3142, "MEAN_ANOMALY": 175.6845, "EPHEMERIS_TYPE": 0, "CLASSIFICATION_TYPE": "U", "NORAD_CAT_ID": 38977, "ELEMENT_SET_NO": 999, "REV_AT_EPOCH": 4774, "BSTAR": 0, "MEAN_MOTION_DOT": -1.3e-06, "MEAN_MOTION_DDOT": 0}, "tle": {"line1": "1 38977U 12061A   25346.98644034 -.00000130  00000+0  00000+0 0  9995", "line2": "2 38977  10.0822  51.7049 0007089 193.3142 175.6845  1.00272307 47742"}}, "geometry": {"type": "Point", "coordinates": [-41.54314434833495, -10.077766077595651]}}, {"type": "Feature", "properties": {"norad_id": 39155, "name": "COSMOS 2485 (747)", "group": "gnss", "lat": 56.88767784754413, "lon": -144.92454223784222, "alt_km": 19151.32481620452, "timestamp": "2025-12-13T16:48:32.953070+00:00", "meta": {"OBJECT_NAME": "COSMOS 2485 (747)", "OBJECT_ID": "2013-019A", "EPOCH": "2025-12-11T16:13:03.281952", "MEAN_MOTION": 2.13102869, "ECCENTRICITY": 0.00245837, "INCLINATION": 65.313, "RA_OF_ASC_NODE": 79.9029, "ARG_OF_PERICENTER": 229.3313, "MEAN_ANOMALY": 130.4708, "EPHEMERIS_TYPE": 0, "CLASSIFICATION_TYPE": "U", "NORAD_CAT_ID": 39155, "ELEMENT_SET_NO": 999, "REV_AT_EPOCH": 9828, "BSTAR": 0, "MEAN_MOTION_DOT": -3.1e-07, "MEAN_MOTION_DDOT": 0}, "tle": {"line1": "1 39155U 13019A   25345.67573243 -.00000031  00000+0  00000+0 0  9996", "line2": "2 39155  65.3130  79.9029 0024583 229.3313 130.4708  2.13102869 98286"}}, "geometry": {"type": "Point", "coordinates": [-144.92454223784222, 56.88767784754413]}}, {"type": "Feature", "properties": {"norad_id": 39166, "name": "GPS BIIF-4  (PRN 27)", "group": "gnss", "lat": -7.13479715699047, "lon": -88.57576990702412, "alt_km": 19982.39303521912, "timestamp": "2025-12-13T16:48:32.953082+00:00", "meta": {"OBJECT_NAME": "GPS BIIF-4  (PRN 27)", "OBJECT_ID": "2013-023A", "EPOCH": "2025-12-12T05:11:52.937952", "MEAN_MOTION": 2.0056516, "ECCENTRICITY": 0.0137857, "INCLINATION": 54.6524, "RA_OF_ASC_NODE": 276.5895, "ARG_OF_PERICENTER": 48.604, "MEAN_ANOMALY": 312.5852, "EPHEMERIS_TYPE": 0, "CLASSIFICATION_TYPE": "U", "NORAD_CAT_ID": 39166, "ELEMENT_SET_NO": 999, "REV_AT_EPOCH": 9213, "BSTAR": 0, "MEAN_MOTION_DOT": -7.4e-07, "MEAN_MOTION_DDOT": 0}, "tle": {"line1": "1 39166U 13023A   25346.21658493 -.00000074  00000+0  00000+0 0  9992", "line2": "2 39166  54.6524 276.5895 0137857  48.6040 312.5852  2.00565160 92134"}}, "geometry": {"type": "Point", "coordinates": [-88.57576990702412, -7.13479715699047]}}, {"type": "Feature", "properties": {"norad_id": 39199, "name": "IRNSS-1A", "group": "gnss", "lat": -19.94981635041602, "lon": 35.73805092677227, "alt_km": 35854.108007358656, "timestamp": "2025-12-13T16:48:32.953093+00:00", "meta": {"OBJECT_NAME": "IRNSS-1A", "OBJECT_ID": "2013-034A", "EPOCH": "2025-12-02T19:49:26.431104", "MEAN_MOTION": 1.00279053, "ECCENTRICITY": 0.00216608, "INCLINATION": 35.2852, "RA_OF_ASC_NODE": 66.6964, "ARG_OF_PERICENTER": 185.4059, "MEAN_ANOMALY": 172.3398, "EPHEMERIS_TYPE": 0, "CLASSIFICATION_TYPE": "U", "NORAD_CAT_ID": 39199, "ELEMENT_SET_NO": 999, "REV_AT_EPOCH": 4539, "BSTAR": 0, "MEAN_MOTION_DOT": 6.5e-07, "MEAN_MOTION_DDOT": 0}, "tle": {"line1": "1 39199U 13034A   25336.82600036  .00000065  00000+0  00000+0 0  9995", "line2": "2 39199  35.2852  66.6964 0021660 185.4059 172.3398  1.00279053 45393"}}, "geometry": {"type": "Point", "coordinates": [35.73805092677227, -19.94981635041602]}}, {"type": "Feature", "properties": {"norad_id": 39533, "name": "GPS BIIF-5  (PRN 30)", "group": "gnss", "lat": -3.3803080146129747, "lon": 154.38322275028554, "alt_km": 20314.028396686044, "timestamp": "2025-12-13T16:48:32.953106+00:00", "meta": {"OBJECT_NAME": "GPS BIIF-5  (PRN 30)", "OBJECT_ID": "2014-008A", "EPOCH": "2025-12-11T17:05:22.085952", "MEAN_MOTION": 2.00574377, "ECCENTRICITY": 0.0079189, "INCLINATION": 53.6311, "RA_OF_ASC_NODE": 156.9665, "ARG_OF_PERICENTER": 226.4865, "MEAN_ANOMALY": 132.8633, "EPHEMERIS_TYPE": 0, "CLASSIFICATION_TYPE": "U", "NORAD_CAT_ID": 39533, "ELEMENT_SET_NO": 999, "REV_AT_EPOCH": 8592, "BSTAR": 0, "MEAN_MOTION_DOT": 8.7e-07, "MEAN_MOTION_DDOT": 0}, "tle": {"line1": "1 39533U 14008A   25345.71206118  .00000087  00000+0  00000+0 0  9994", "line2": "2 39533  53.6311 156.9665 0079189 226.4865 132.8633  2.00574377 85924"}}, "geometry": {"type": "Point", "coordinates": [154.38322275028554, -3.3803080146129747]}}, {"type": "Feature", "properties": {"norad_id": 39617, "name": "ASTRA 5B (EGNOS/PRN 123)", "group": "gnss", "lat": -0.03286391680609371, "lon": -1.7038071814879188, "alt_km": 35786.4987224446, "timestamp": "2025-12-13T16:48:32.953117+00:00", "meta": {"OBJECT_NAME": "ASTRA 5B (EGNOS/PRN 123)", "OBJECT_ID": "2014-011B", "EPOCH": "2025-12-12T23:51:49.857120", "MEAN_MOTION": 1.00272631, "ECCENTRICITY": 0.00043443, "INCLINATION": 0.0615, "RA_OF_ASC_NODE": 39.0398, "ARG_OF_PERICENTER": 227.001, "MEAN_ANOMALY": 197.3353, "EPHEMERIS_TYPE": 0, "CLASSIFICATION_TYPE": "U", "NORAD_CAT_ID": 39617, "ELEMENT_SET_NO": 999, "REV_AT_EPOCH": 4280, "BSTAR": 0, "MEAN_MOTION_DOT": 1.5e-06, "MEAN_MOTION_DDOT": 0}, "tle": {"line1": "1 39617U 14011B   25346.99432705  .00000150  00000+0  00000+0 0  9996", "line2": "2 39617   0.0615  39.0398 0004344 227.0010 197.3353  1.00272631 42806"}}, "geometry": {"type": "Point", "coordinates": [-1.7038071814879188, -0.03286391680609371]}}]}